[{"OBJECT_NAME":"ONEWEB-0296","OBJECT_ID":"2021-075L","EPOCH":"2026-03-10T08:30:13.679136","MEAN_MOTION":13.12443152,"ECCENTRICITY":0.0001997,"INCLINATION":87.9007,"RA_OF_ASC_NODE":10.277,"ARG_OF_PERICENTER":70.0321,"MEAN_ANOMALY":290.1022,"EPHEMERIS_TYPE":0,"CLASSIFICATION_TYPE":"U","NORAD_CAT_ID":49085,"ELEMENT_SET_NO":999,"REV_AT_EPOCH":22161,"BSTAR":0.00097735,"MEAN_MOTION_DOT":3.64e-6,"MEAN_MOTION_DDOT":0},{"OBJECT_NAME":"ONEWEB-0297","OBJECT_ID":"2021-075M","EPOCH":"2026-03-10T09:14:08.340000","MEAN_MOTION":13.12441225,"ECCENTRICITY":0.0001796,"INCLINATION":87.8994,"RA_OF_ASC_NODE":10.2956,"ARG_OF_PERICENTER":75.5441,"MEAN_ANOMALY":284.5887,"EPHEMERIS_TYPE":0,"CLASSIFICATION_TYPE":"U","NORAD_CAT_ID":49086,"ELEMENT_SET_NO":999,"REV_AT_EPOCH":22222,"BSTAR":-0.00048527,"MEAN_MOTION_DOT":-1.62e-6,"MEAN_MOTION_DDOT":0},{"OBJECT_NAME":"ONEWEB-0298","OBJECT_ID":"2021-075N","EPOCH":"2026-03-10T09:34:46.407936","MEAN_MOTION":13.17648771,"ECCENTRICITY":0.0001679,"INCLINATION":87.9152,"RA_OF_ASC_NODE":25.4844,"ARG_OF_PERICENTER":79.4903,"MEAN_ANOMALY":280.6418,"EPHEMERIS_TYPE":0,"CLASSIFICATION_TYPE":"U","NORAD_CAT_ID":49087,"ELEMENT_SET_NO":999,"REV_AT_EPOCH":22061,"BSTAR":-0.00019143,"MEAN_MOTION_DOT":-6.1e-7,"MEAN_MOTION_DDOT":0},{"OBJECT_NAME":"ONEWEB-0299","OBJECT_ID":"2021-075P","EPOCH":"2026-03-10T09:37:00.072192","MEAN_MOTION":13.17648569,"ECCENTRICITY":0.0001802,"INCLINATION":87.9165,"RA_OF_ASC_NODE":25.4546,"ARG_OF_PERICENTER":75.7018,"MEAN_ANOMALY":284.4313,"EPHEMERIS_TYPE":0,"CLASSIFICATION_TYPE":"U","NORAD_CAT_ID":49088,"ELEMENT_SET_NO":999,"REV_AT_EPOCH":22059,"BSTAR":-9.6164e-5,"MEAN_MOTION_DOT":-2.4e-7,"MEAN_MOTION_DDOT":0},{"OBJECT_NAME":"ONEWEB-0300","OBJECT_ID":"2021-075Q","EPOCH":"2026-03-10T09:03:09.468288","MEAN_MOTION":13.12442381,"ECCENTRICITY":0.0001457,"INCLINATION":87.9006,"RA_OF_ASC_NODE":10.265,"ARG_OF_PERICENTER":78.7783,"MEAN_ANOMALY":281.3509,"EPHEMERIS_TYPE":0,"CLASSIFICATION_TYPE":"U","NORAD_CAT_ID":49089,"ELEMENT_SET_NO":999,"REV_AT_EPOCH":22224,"BSTAR":8.1106e-5,"MEAN_MOTION_DOT":4.2e-7,"MEAN_MOTION_DDOT":0},{"OBJECT_NAME":"ONEWEB-0301","OBJECT_ID":"2021-075R","EPOCH":"2026-03-10T08:39:57.626496","MEAN_MOTION":13.1244423,"ECCENTRICITY":0.0001433,"INCLINATION":87.9002,"RA_OF_ASC_NODE":10.2693,"ARG_OF_PERICENTER":84.3469,"MEAN_ANOMALY":275.7823,"EPHEMERIS_TYPE":0,"CLASSIFICATION_TYPE":"U","NORAD_CAT_ID":49090,"ELEMENT_SET_NO":999,"REV_AT_EPOCH":22160,"BSTAR":0.0014422,"MEAN_MOTION_DOT":5.32e-6,"MEAN_MOTION_DDOT":0},{"OBJECT_NAME":"ONEWEB-0302","OBJECT_ID":"2021-075S","EPOCH":"2026-03-10T08:20:28.001184","MEAN_MOTION":13.12443816,"ECCENTRICITY":0.0002131,"INCLINATION":87.9005,"RA_OF_ASC_NODE":10.2805,"ARG_OF_PERICENTER":76.0712,"MEAN_ANOMALY":284.0654,"EPHEMERIS_TYPE":0,"CLASSIFICATION_TYPE":"U","NORAD_CAT_ID":49091,"ELEMENT_SET_NO":999,"REV_AT_EPOCH":22158,"BSTAR":0.00059912,"MEAN_MOTION_DOT":2.28e-6,"MEAN_MOTION_DDOT":0},{"OBJECT_NAME":"ONEWEB-0304","OBJECT_ID":"2021-075T","EPOCH":"2026-03-10T09:00:34.574688","MEAN_MOTION":13.17650013,"ECCENTRICITY":0.0001884,"INCLINATION":87.9158,"RA_OF_ASC_NODE":25.4896,"ARG_OF_PERICENTER":75.3508,"MEAN_ANOMALY":284.7832,"EPHEMERIS_TYPE":0,"CLASSIFICATION_TYPE":"U","NORAD_CAT_ID":49092,"ELEMENT_SET_NO":999,"REV_AT_EPOCH":22056,"BSTAR":0.00010769,"MEAN_MOTION_DOT":5.5e-7,"MEAN_MOTION_DDOT":0},{"OBJECT_NAME":"ONEWEB-0305","OBJECT_ID":"2021-075U","EPOCH":"2026-03-10T08:50:51.625248","MEAN_MOTION":13.17649032,"ECCENTRICITY":0.000184,"INCLINATION":87.9162,"RA_OF_ASC_NODE":25.4699,"ARG_OF_PERICENTER":68.4535,"MEAN_ANOMALY":291.6793,"EPHEMERIS_TYPE":0,"CLASSIFICATION_TYPE":"U","NORAD_CAT_ID":49093,"ELEMENT_SET_NO":999,"REV_AT_EPOCH":22059,"BSTAR":0.00013748,"MEAN_MOTION_DOT":6.6e-7,"MEAN_MOTION_DDOT":0},{"OBJECT_NAME":"ONEWEB-0308","OBJECT_ID":"2021-075V","EPOCH":"2026-03-10T08:10:42.022560","MEAN_MOTION":13.12444009,"ECCENTRICITY":0.0001835,"INCLINATION":87.9004,"RA_OF_ASC_NODE":10.2749,"ARG_OF_PERICENTER":78.3831,"MEAN_ANOMALY":281.7503,"EPHEMERIS_TYPE":0,"CLASSIFICATION_TYPE":"U","NORAD_CAT_ID":49094,"ELEMENT_SET_NO":999,"REV_AT_EPOCH":22159,"BSTAR":0.00010384,"MEAN_MOTION_DOT":5.0e-7,"MEAN_MOTION_DDOT":0},{"OBJECT_NAME":"ONEWEB-0309","OBJECT_ID":"2021-075W","EPOCH":"2026-03-10T08:55:41.064384","MEAN_MOTION":13.17647379,"ECCENTRICITY":0.0002306,"INCLINATION":87.9158,"RA_OF_ASC_NODE":25.4832,"ARG_OF_PERICENTER":78.3074,"MEAN_ANOMALY":281.8316,"EPHEMERIS_TYPE":0,"CLASSIFICATION_TYPE":"U","NORAD_CAT_ID":49095,"ELEMENT_SET_NO":999,"REV_AT_EPOCH":22056,"BSTAR":-0.0013614,"MEAN_MOTION_DOT":-5.16e-6,"MEAN_MOTION_DDOT":0},{"OBJECT_NAME":"ONEWEB-0310","OBJECT_ID":"2021-075X","EPOCH":"2026-03-10T08:32:38.946048","MEAN_MOTION":13.12444798,"ECCENTRICITY":0.0001816,"INCLINATION":87.8998,"RA_OF_ASC_NODE":10.302,"ARG_OF_PERICENTER":80.0756,"MEAN_ANOMALY":280.0578,"EPHEMERIS_TYPE":0,"CLASSIFICATION_TYPE":"U","NORAD_CAT_ID":49096,"ELEMENT_SET_NO":999,"REV_AT_EPOCH":22222,"BSTAR":0.00132,"MEAN_MOTION_DOT":4.88e-6,"MEAN_MOTION_DDOT":0},{"OBJECT_NAME":"ONEWEB-0311","OBJECT_ID":"2021-075Y","EPOCH":"2026-03-10T09:05:26.585088","MEAN_MOTION":13.17651307,"ECCENTRICITY":0.0001659,"INCLINATION":87.916,"RA_OF_ASC_NODE":25.4771,"ARG_OF_PERICENTER":66.6107,"MEAN_ANOMALY":293.5199,"EPHEMERIS_TYPE":0,"CLASSIFICATION_TYPE":"U","NORAD_CAT_ID":49097,"ELEMENT_SET_NO":999,"REV_AT_EPOCH":22061,"BSTAR":0.00015485,"MEAN_MOTION_DOT":7.3e-7,"MEAN_MOTION_DDOT":0},{"OBJECT_NAME":"ONEWEB-0312","OBJECT_ID":"2021-075Z","EPOCH":"2026-03-10T09:27:17.736192","MEAN_MOTION":13.17649425,"ECCENTRICITY":0.0002013,"INCLINATION":87.9154,"RA_OF_ASC_NODE":25.492,"ARG_OF_PERICENTER":71.9222,"MEAN_ANOMALY":288.2129,"EPHEMERIS_TYPE":0,"CLASSIFICATION_TYPE":"U","NORAD_CAT_ID":49098,"ELEMENT_SET_NO":999,"REV_AT_EPOCH":22059,"BSTAR":6.0318e-5,"MEAN_MOTION_DOT":3.6e-7,"MEAN_MOTION_DDOT":0},{"OBJECT_NAME":"ONEWEB-0313","OBJECT_ID":"2021-075AA","EPOCH":"2026-03-10T09:34:24.108960","MEAN_MOTION":13.17648921,"ECCENTRICITY":0.0001815,"INCLINATION":87.9153,"RA_OF_ASC_NODE":25.4974,"ARG_OF_PERICENTER":77.9182,"MEAN_ANOMALY":282.2153,"EPHEMERIS_TYPE":0,"CLASSIFICATION_TYPE":"U","NORAD_CAT_ID":49099,"ELEMENT_SET_NO":999,"REV_AT_EPOCH":22058,"BSTAR":0.0001212,"MEAN_MOTION_DOT":6.0e-7,"MEAN_MOTION_DDOT":0},{"OBJECT_NAME":"ONEWEB-0314","OBJECT_ID":"2021-075AB","EPOCH":"2026-03-10T10:35:20.126688","MEAN_MOTION":13.17648904,"ECCENTRICITY":0.0002044,"INCLINATION":87.9162,"RA_OF_ASC_NODE":25.4518,"ARG_OF_PERICENTER":69.6326,"MEAN_ANOMALY":290.5025,"EPHEMERIS_TYPE":0,"CLASSIFICATION_TYPE":"U","NORAD_CAT_ID":49100,"ELEMENT_SET_NO":999,"REV_AT_EPOCH":22056,"BSTAR":-0.00013997,"MEAN_MOTION_DOT":-4.1e-7,"MEAN_MOTION_DDOT":0},{"OBJECT_NAME":"ONEWEB-0315","OBJECT_ID":"2021-075AC","EPOCH":"2026-03-10T07:53:37.087872","MEAN_MOTION":13.12443231,"ECCENTRICITY":0.000156,"INCLINATION":87.9005,"RA_OF_ASC_NODE":10.2634,"ARG_OF_PERICENTER":67.2172,"MEAN_ANOMALY":292.9121,"EPHEMERIS_TYPE":0,"CLASSIFICATION_TYPE":"U","NORAD_CAT_ID":49101,"ELEMENT_SET_NO":999,"REV_AT_EPOCH":22220,"BSTAR":-0.00091742,"MEAN_MOTION_DOT":-3.17e-6,"MEAN_MOTION_DDOT":0},{"OBJECT_NAME":"ONEWEB-0316","OBJECT_ID":"2021-075AD","EPOCH":"2026-03-10T05:10:55.119072","MEAN_MOTION":13.18684594,"ECCENTRICITY":0.000175,"INCLINATION":87.9244,"RA_OF_ASC_NODE":355.1197,"ARG_OF_PERICENTER":76.3714,"MEAN_ANOMALY":283.7613,"EPHEMERIS_TYPE":0,"CLASSIFICATION_TYPE":"U","NORAD_CAT_ID":49102,"ELEMENT_SET_NO":999,"REV_AT_EPOCH":22416,"BSTAR":0.00021922,"MEAN_MOTION_DOT":9.9e-7,"MEAN_MOTION_DDOT":0},{"OBJECT_NAME":"ONEWEB-0317","OBJECT_ID":"2021-075AE","EPOCH":"2026-03-10T07:58:30.292320","MEAN_MOTION":13.12444268,"ECCENTRICITY":0.000245,"INCLINATION":87.901,"RA_OF_ASC_NODE":10.2848,"ARG_OF_PERICENTER":90.6818,"MEAN_ANOMALY":269.4591,"EPHEMERIS_TYPE":0,"CLASSIFICATION_TYPE":"U","NORAD_CAT_ID":49103,"ELEMENT_SET_NO":999,"REV_AT_EPOCH":22222,"BSTAR":-0.00061994,"MEAN_MOTION_DOT":-2.1e-6,"MEAN_MOTION_DDOT":0},{"OBJECT_NAME":"ONEWEB-0318","OBJECT_ID":"2021-075AF","EPOCH":"2026-03-10T05:06:10.974528","MEAN_MOTION":13.18685093,"ECCENTRICITY":0.00016315,"INCLINATION":87.9251,"RA_OF_ASC_NODE":355.113,"ARG_OF_PERICENTER":69.7343,"MEAN_ANOMALY":290.3965,"EPHEMERIS_TYPE":0,"CLASSIFICATION_TYPE":"U","NORAD_CAT_ID":49104,"ELEMENT_SET_NO":999,"REV_AT_EPOCH":22412,"BSTAR":0.0001855034,"MEAN_MOTION_DOT":8.6e-7,"MEAN_MOTION_DDOT":0},{"OBJECT_NAME":"ONEWEB-0319","OBJECT_ID":"2021-075AG","EPOCH":"2026-03-10T09:07:51.737088","MEAN_MOTION":13.17649427,"ECCENTRICITY":0.0001462,"INCLINATION":87.9153,"RA_OF_ASC_NODE":25.4886,"ARG_OF_PERICENTER":65.0023,"MEAN_ANOMALY":295.126,"EPHEMERIS_TYPE":0,"CLASSIFICATION_TYPE":"U","NORAD_CAT_ID":49105,"ELEMENT_SET_NO":999,"REV_AT_EPOCH":22059,"BSTAR":-0.00010946,"MEAN_MOTION_DOT":-3.0e-7,"MEAN_MOTION_DDOT":0},{"OBJECT_NAME":"ONEWEB-0323","OBJECT_ID":"2021-075AH","EPOCH":"2026-03-10T09:21:26.659296","MEAN_MOTION":13.12441632,"ECCENTRICITY":0.0001697,"INCLINATION":87.9006,"RA_OF_ASC_NODE":10.2558,"ARG_OF_PERICENTER":57.0827,"MEAN_ANOMALY":303.0465,"EPHEMERIS_TYPE":0,"CLASSIFICATION_TYPE":"U","NORAD_CAT_ID":49106,"ELEMENT_SET_NO":999,"REV_AT_EPOCH":22159,"BSTAR":-0.00091251,"MEAN_MOTION_DOT":-3.16e-6,"MEAN_MOTION_DDOT":0},{"OBJECT_NAME":"ONEWEB-0329","OBJECT_ID":"2021-075AJ","EPOCH":"2026-03-10T09:20:00.235968","MEAN_MOTION":13.17648683,"ECCENTRICITY":0.000188,"INCLINATION":87.9152,"RA_OF_ASC_NODE":25.4875,"ARG_OF_PERICENTER":75.5909,"MEAN_ANOMALY":284.5431,"EPHEMERIS_TYPE":0,"CLASSIFICATION_TYPE":"U","NORAD_CAT_ID":49107,"ELEMENT_SET_NO":999,"REV_AT_EPOCH":22057,"BSTAR":-6.0541e-5,"MEAN_MOTION_DOT":-1.1e-7,"MEAN_MOTION_DDOT":0},{"OBJECT_NAME":"ONEWEB-0330","OBJECT_ID":"2021-075AK","EPOCH":"2026-03-08T20:55:25.864032","MEAN_MOTION":13.1717637,"ECCENTRICITY":0.00020924,"INCLINATION":87.9122,"RA_OF_ASC_NODE":25.7983,"ARG_OF_PERICENTER":57.8554,"MEAN_ANOMALY":302.278,"EPHEMERIS_TYPE":0,"CLASSIFICATION_TYPE":"U","NORAD_CAT_ID":49108,"ELEMENT_SET_NO":999,"REV_AT_EPOCH":22041,"BSTAR":-0.11986739,"MEAN_MOTION_DOT":-0.00045973,"MEAN_MOTION_DDOT":0}]
